ONEWEB-0641             
1 55805U 23029K   23256.19453943  .00000156  00000+0  35630-3 0  9996
2 55805  87.9203 145.6146 0002189  78.3825 281.7554 13.19724365 25969
ONEWEB-0642             
1 55806U 23029L   23256.18980695  .00000058  00000+0  11253-3 0  9991
2 55806  87.9264 145.5763 0002828  79.5925 280.5526 13.19724118 25956
ONEWEB-0643             
1 55807U 23029M   23256.91667824  .00000013  00000+0  00000+0 0  9994
2 55807  87.9309 130.2308 0002167  38.8009  53.5243 13.22222324 27761
ONEWEB-0644             
1 55808U 23029N   23256.71578329  .00000130  00000+0  29181-3 0  9999
2 55808  87.9195 145.4986 0002606  76.7947 283.3476 13.19731473 26716
ONEWEB-0645             
1 55809U 23029P   23256.25695646  .00000112  00000+0  24649-3 0  9995
2 55809  87.9266 145.5585 0002402  87.3863 272.7544 13.19723302 25967
ONEWEB-0646             
1 55810U 23029Q   23256.21113596  .00000198  00000+0  46269-3 0  9998
2 55810  87.9175 145.5728 0002177  74.0051 286.1321 13.19727848 25947
ONEWEB-0648             
1 55811U 23029R   23256.91667824  .00000013  00000+0  00000+0 0  9999
2 55811  87.9421 130.1977 0002680  89.3289 160.2996 13.23972912 27771
ONEWEB-0649             
1 55812U 23029S   23256.17402296  .00000145  00000+0  32954-3 0  9991
2 55812  87.9183 145.5952 0002381  81.8067 278.3335 13.19718591 25973
